CCSDS_OMM_VERS = 2.0
CREATION_DATE  = 
ORIGINATOR     = 

OBJECT_NAME    = STARLINK-36538
OBJECT_ID      = 2026-012V
CENTER_NAME    = EARTH
REF_FRAME      = TEME
TIME_SYSTEM    = UTC
MEAN_ELEMENT_THEORY = SGP/SGP4

EPOCH          = 2026-02-07T12:00:00.998784
MEAN_MOTION    = 15.65539763
ECCENTRICITY   = .0001445
INCLINATION    = 42.9996
RA_OF_ASC_NODE = 126.6487
ARG_OF_PERICENTER = 286.2259
MEAN_ANOMALY   = 107.2208

EPHEMERIS_TYPE = 0
CLASSIFICATION_TYPE = U
NORAD_CAT_ID   = 67512
ELEMENT_SET_NO = 999
REV_AT_EPOCH   = 421
BSTAR          = -.2141E-1
MEAN_MOTION_DOT = -.1951066E-1
MEAN_MOTION_DDOT = 0

CCSDS_OMM_VERS = 2.0
CREATION_DATE  = 
ORIGINATOR     = 

OBJECT_NAME    = STARLINK-36531
OBJECT_ID      = 2026-012W
CENTER_NAME    = EARTH
REF_FRAME      = TEME
TIME_SYSTEM    = UTC
MEAN_ELEMENT_THEORY = SGP/SGP4

EPOCH          = 2026-02-07T12:00:00.998784
MEAN_MOTION    = 15.66422715
ECCENTRICITY   = .0001436
INCLINATION    = 42.9995
RA_OF_ASC_NODE = 126.6078
ARG_OF_PERICENTER = 288.0133
MEAN_ANOMALY   = 122.0118

EPHEMERIS_TYPE = 0
CLASSIFICATION_TYPE = U
NORAD_CAT_ID   = 67513
ELEMENT_SET_NO = 999
REV_AT_EPOCH   = 415
BSTAR          = -.20709E-1
MEAN_MOTION_DOT = -.1955591E-1
MEAN_MOTION_DDOT = 0

CCSDS_OMM_VERS = 2.0
CREATION_DATE  = 
ORIGINATOR     = 

OBJECT_NAME    = STARLINK-36530
OBJECT_ID      = 2026-012X
CENTER_NAME    = EARTH
REF_FRAME      = TEME
TIME_SYSTEM    = UTC
MEAN_ELEMENT_THEORY = SGP/SGP4

EPOCH          = 2026-02-07T12:00:00.998784
MEAN_MOTION    = 15.65470765
ECCENTRICITY   = .0001475
INCLINATION    = 42.9993
RA_OF_ASC_NODE = 126.6254
ARG_OF_PERICENTER = 282.8414
MEAN_ANOMALY   = 119.8493

EPHEMERIS_TYPE = 0
CLASSIFICATION_TYPE = U
NORAD_CAT_ID   = 67514
ELEMENT_SET_NO = 999
REV_AT_EPOCH   = 415
BSTAR          = -.21456E-1
MEAN_MOTION_DOT = -.1949965E-1
MEAN_MOTION_DDOT = 0

CCSDS_OMM_VERS = 2.0
CREATION_DATE  = 
ORIGINATOR     = 

OBJECT_NAME    = STARLINK-36543
OBJECT_ID      = 2026-012Y
CENTER_NAME    = EARTH
REF_FRAME      = TEME
TIME_SYSTEM    = UTC
MEAN_ELEMENT_THEORY = SGP/SGP4

EPOCH          = 2026-02-07T12:00:00.998784
MEAN_MOTION    = 15.64465459
ECCENTRICITY   = .0001486
INCLINATION    = 42.9997
RA_OF_ASC_NODE = 126.6480
ARG_OF_PERICENTER = 283.4241
MEAN_ANOMALY   = 109.9432

EPHEMERIS_TYPE = 0
CLASSIFICATION_TYPE = U
NORAD_CAT_ID   = 67515
ELEMENT_SET_NO = 999
REV_AT_EPOCH   = 415
BSTAR          = -.22327E-1
MEAN_MOTION_DOT = -.1948644E-1
MEAN_MOTION_DDOT = 0

CCSDS_OMM_VERS = 2.0
CREATION_DATE  = 
ORIGINATOR     = 

OBJECT_NAME    = STARLINK-36537
OBJECT_ID      = 2026-012Z
CENTER_NAME    = EARTH
REF_FRAME      = TEME
TIME_SYSTEM    = UTC
MEAN_ELEMENT_THEORY = SGP/SGP4

EPOCH          = 2026-02-07T12:00:00.998784
MEAN_MOTION    = 15.66510121
ECCENTRICITY   = .0001317
INCLINATION    = 42.9992
RA_OF_ASC_NODE = 126.5433
ARG_OF_PERICENTER = 291.5940
MEAN_ANOMALY   = 143.6264

EPHEMERIS_TYPE = 0
CLASSIFICATION_TYPE = U
NORAD_CAT_ID   = 67516
ELEMENT_SET_NO = 999
REV_AT_EPOCH   = 415
BSTAR          = -.20617E-1
MEAN_MOTION_DOT = -.195401E-1
MEAN_MOTION_DDOT = 0

CCSDS_OMM_VERS = 2.0
CREATION_DATE  = 
ORIGINATOR     = 

OBJECT_NAME    = STARLINK-36544
OBJECT_ID      = 2026-012AA
CENTER_NAME    = EARTH
REF_FRAME      = TEME
TIME_SYSTEM    = UTC
MEAN_ELEMENT_THEORY = SGP/SGP4

EPOCH          = 2026-02-07T12:00:00.998784
MEAN_MOTION    = 15.67415754
ECCENTRICITY   = .0001369
INCLINATION    = 42.9993
RA_OF_ASC_NODE = 126.5312
ARG_OF_PERICENTER = 290.4471
MEAN_ANOMALY   = 149.5710

EPHEMERIS_TYPE = 0
CLASSIFICATION_TYPE = U
NORAD_CAT_ID   = 67517
ELEMENT_SET_NO = 999
REV_AT_EPOCH   = 421
BSTAR          = -.19848E-1
MEAN_MOTION_DOT = -.1952629E-1
MEAN_MOTION_DDOT = 0

CCSDS_OMM_VERS = 2.0
CREATION_DATE  = 
ORIGINATOR     = 

OBJECT_NAME    = STARLINK-36412
OBJECT_ID      = 2026-012AB
CENTER_NAME    = EARTH
REF_FRAME      = TEME
TIME_SYSTEM    = UTC
MEAN_ELEMENT_THEORY = SGP/SGP4

EPOCH          = 2026-02-07T12:00:00.998784
MEAN_MOTION    = 15.66631713
ECCENTRICITY   = .0001202
INCLINATION    = 42.9989
RA_OF_ASC_NODE = 126.4969
ARG_OF_PERICENTER = 287.4084
MEAN_ANOMALY   = 166.3584

EPHEMERIS_TYPE = 0
CLASSIFICATION_TYPE = U
NORAD_CAT_ID   = 67518
ELEMENT_SET_NO = 999
REV_AT_EPOCH   = 415
BSTAR          = -.2049E-1
MEAN_MOTION_DOT = -.1951812E-1
MEAN_MOTION_DDOT = 0

CCSDS_OMM_VERS = 2.0
CREATION_DATE  = 
ORIGINATOR     = 

OBJECT_NAME    = STARLINK-36415
OBJECT_ID      = 2026-012AC
CENTER_NAME    = EARTH
REF_FRAME      = TEME
TIME_SYSTEM    = UTC
MEAN_ELEMENT_THEORY = SGP/SGP4

EPOCH          = 2026-02-07T12:00:00.998784
MEAN_MOTION    = 15.66836298
ECCENTRICITY   = .0001163
INCLINATION    = 42.9988
RA_OF_ASC_NODE = 126.4728
ARG_OF_PERICENTER = 286.3677
MEAN_ANOMALY   = 176.4449

EPHEMERIS_TYPE = 0
CLASSIFICATION_TYPE = U
NORAD_CAT_ID   = 67519
ELEMENT_SET_NO = 999
REV_AT_EPOCH   = 437
BSTAR          = -.2041E-1
MEAN_MOTION_DOT = -.1959514E-1
MEAN_MOTION_DDOT = 0

CCSDS_OMM_VERS = 2.0
CREATION_DATE  = 
ORIGINATOR     = 

OBJECT_NAME    = STARLINK-36547
OBJECT_ID      = 2026-012AD
CENTER_NAME    = EARTH
REF_FRAME      = TEME
TIME_SYSTEM    = UTC
MEAN_ELEMENT_THEORY = SGP/SGP4

EPOCH          = 2026-02-07T12:00:00.998784
MEAN_MOTION    = 15.66456825
ECCENTRICITY   = .0001228
INCLINATION    = 42.9989
RA_OF_ASC_NODE = 126.5137
ARG_OF_PERICENTER = 289.1850
MEAN_ANOMALY   = 157.5499

EPHEMERIS_TYPE = 0
CLASSIFICATION_TYPE = U
NORAD_CAT_ID   = 67520
ELEMENT_SET_NO = 999
REV_AT_EPOCH   = 415
BSTAR          = -.20702E-1
MEAN_MOTION_DOT = -.1957265E-1
MEAN_MOTION_DDOT = 0

CCSDS_OMM_VERS = 2.0
CREATION_DATE  = 
ORIGINATOR     = 

OBJECT_NAME    = STARLINK-36444
OBJECT_ID      = 2026-012AE
CENTER_NAME    = EARTH
REF_FRAME      = TEME
TIME_SYSTEM    = UTC
MEAN_ELEMENT_THEORY = SGP/SGP4

EPOCH          = 2026-02-07T12:00:00.998784
MEAN_MOTION    = 15.64776836
ECCENTRICITY   = .000135
INCLINATION    = 42.9990
RA_OF_ASC_NODE = 126.5872
ARG_OF_PERICENTER = 288.9623
MEAN_ANOMALY   = 128.5445

EPHEMERIS_TYPE = 0
CLASSIFICATION_TYPE = U
NORAD_CAT_ID   = 67521
ELEMENT_SET_NO = 999
REV_AT_EPOCH   = 415
BSTAR          = -.21999E-1
MEAN_MOTION_DOT = -.1944667E-1
MEAN_MOTION_DDOT = 0

CCSDS_OMM_VERS = 2.0
CREATION_DATE  = 
ORIGINATOR     = 

OBJECT_NAME    = HULIANWANG DIGUI-146
OBJECT_ID      = 2026-013A
CENTER_NAME    = EARTH
REF_FRAME      = TEME
TIME_SYSTEM    = UTC
MEAN_ELEMENT_THEORY = SGP/SGP4

EPOCH          = 2026-02-07T03:39:21.229920
MEAN_MOTION    = 13.85084532
ECCENTRICITY   = .00008028
INCLINATION    = 50.0086
RA_OF_ASC_NODE = 109.7340
ARG_OF_PERICENTER = 330.0711
MEAN_ANOMALY   = 30.0139

EPHEMERIS_TYPE = 0
CLASSIFICATION_TYPE = U
NORAD_CAT_ID   = 67522
ELEMENT_SET_NO = 999
REV_AT_EPOCH   = 263
BSTAR          = .13984811E-3
MEAN_MOTION_DOT = .15E-6
MEAN_MOTION_DDOT = 0

CCSDS_OMM_VERS = 2.0
CREATION_DATE  = 
ORIGINATOR     = 

OBJECT_NAME    = HULIANWANG DIGUI-147
OBJECT_ID      = 2026-013B
CENTER_NAME    = EARTH
REF_FRAME      = TEME
TIME_SYSTEM    = UTC
MEAN_ELEMENT_THEORY = SGP/SGP4

EPOCH          = 2026-02-07T03:37:07.727232
MEAN_MOTION    = 13.85068270
ECCENTRICITY   = .00010043
INCLINATION    = 50.0047
RA_OF_ASC_NODE = 109.7100
ARG_OF_PERICENTER = 18.7436
MEAN_ANOMALY   = 341.3497

EPHEMERIS_TYPE = 0
CLASSIFICATION_TYPE = U
NORAD_CAT_ID   = 67523
ELEMENT_SET_NO = 999
REV_AT_EPOCH   = 263
BSTAR          = .13113892E-3
MEAN_MOTION_DOT = .5E-7
MEAN_MOTION_DDOT = 0

