STARLINK-36538          
1 67512U 26012V   26038.50001156 -.01951066  00000+0 -21410-1 0  9997
2 67512  42.9996 126.6487 0001445 286.2259 107.2208 15.65539763  4211
STARLINK-36531          
1 67513U 26012W   26038.50001156 -.01955591  00000+0 -20709-1 0  9995
2 67513  42.9995 126.6078 0001436 288.0133 122.0118 15.66422715  4155
STARLINK-36530          
1 67514U 26012X   26038.50001156 -.01949965  00000+0 -21456-1 0  9994
2 67514  42.9993 126.6254 0001475 282.8414 119.8493 15.65470765  4154
STARLINK-36543          
1 67515U 26012Y   26038.50001156 -.01948644  00000+0 -22327-1 0  9996
2 67515  42.9997 126.6480 0001486 283.4241 109.9432 15.64465459  4153
STARLINK-36537          
1 67516U 26012Z   26038.50001156 -.01954010  00000+0 -20617-1 0  9991
2 67516  42.9992 126.5433 0001317 291.5940 143.6264 15.66510121  4152
STARLINK-36544          
1 67517U 26012AA  26038.50001156 -.01952629  00000+0 -19848-1 0  9990
2 67517  42.9993 126.5312 0001369 290.4471 149.5710 15.67415754  4219
STARLINK-36412          
1 67518U 26012AB  26038.50001156 -.01951812  00000+0 -20490-1 0  9999
2 67518  42.9989 126.4969 0001202 287.4084 166.3584 15.66631713  4157
STARLINK-36415          
1 67519U 26012AC  26038.50001156 -.01959514  00000+0 -20410-1 0  9999
2 67519  42.9988 126.4728 0001163 286.3677 176.4449 15.66836298  4373
STARLINK-36547          
1 67520U 26012AD  26038.50001156 -.01957265  00000+0 -20702-1 0  9996
2 67520  42.9989 126.5137 0001228 289.1850 157.5499 15.66456825  4152
STARLINK-36444          
1 67521U 26012AE  26038.50001156 -.01944667  00000+0 -21999-1 0  9998
2 67521  42.9990 126.5872 0001350 288.9623 128.5445 15.64776836  4156
HULIANWANG DIGUI-146    
1 67522U 26013A   26038.15232905  .00000015  00000+0  13985-3 0  9994
2 67522  50.0086 109.7340 0000802 330.0711  30.0139 13.85084532  2638
HULIANWANG DIGUI-147    
1 67523U 26013B   26038.15078388  .00000005  00000+0  13114-3 0  9991
2 67523  50.0047 109.7100 0001004  18.7436 341.3497 13.85068270  2635
